<?xml version="1.0" encoding="UTF-8"?>
<kml xmlns="http://www.opengis.net/kml/2.2">
  <Document>
    <name>BRIGADA 1 DT11</name>
    <description>Capa del BRIGADA 1 DT11</description>
    
    <Placemark>
      <name>Sección 1206</name>
      <description>Sección electoral 1206 - BRIGADA 1 DT11</description>
      <ExtendedData>
        <Data name="seccion">
          <value>1206</value>
        </Data>
        <Data name="distrito">
          <value>11</value>
        </Data>
      </ExtendedData>
      <Style>
        <PolyStyle>
          <color>804aa316</color>
        </PolyStyle>
        <LineStyle>
          <color>ff4aa316</color>
          <width>2</width>
        </LineStyle>
      </Style>
      <Polygon>
        <outerBoundaryIs>
          <LinearRing>
            <coordinates>
              -101.205000,19.712500,0 -101.197400,19.712150,0 -101.196600,19.719150,0 -101.204200,19.719500,0 -101.205000,19.712500,0
            </coordinates>
          </LinearRing>
        </outerBoundaryIs>
      </Polygon>
    </Placemark>
  

    <Placemark>
      <name>Sección 977</name>
      <description>Sección electoral 977 - BRIGADA 1 DT11</description>
      <ExtendedData>
        <Data name="seccion">
          <value>977</value>
        </Data>
        <Data name="distrito">
          <value>11</value>
        </Data>
      </ExtendedData>
      <Style>
        <PolyStyle>
          <color>804aa316</color>
        </PolyStyle>
        <LineStyle>
          <color>ff4aa316</color>
          <width>2</width>
        </LineStyle>
      </Style>
      <Polygon>
        <outerBoundaryIs>
          <LinearRing>
            <coordinates>
              -101.196000,19.706500,0 -101.190300,19.706250,0 -101.189700,19.711250,0 -101.195400,19.711500,0 -101.196000,19.706500,0
            </coordinates>
          </LinearRing>
        </outerBoundaryIs>
      </Polygon>
    </Placemark>
  

    <Placemark>
      <name>Sección 976</name>
      <description>Sección electoral 976 - BRIGADA 1 DT11</description>
      <ExtendedData>
        <Data name="seccion">
          <value>976</value>
        </Data>
        <Data name="distrito">
          <value>11</value>
        </Data>
      </ExtendedData>
      <Style>
        <PolyStyle>
          <color>804aa316</color>
        </PolyStyle>
        <LineStyle>
          <color>ff4aa316</color>
          <width>2</width>
        </LineStyle>
      </Style>
      <Polygon>
        <outerBoundaryIs>
          <LinearRing>
            <coordinates>
              -101.193500,19.704500,0 -101.188750,19.704300,0 -101.188250,19.708300,0 -101.193000,19.708500,0 -101.193500,19.704500,0
            </coordinates>
          </LinearRing>
        </outerBoundaryIs>
      </Polygon>
    </Placemark>
  

    <Placemark>
      <name>Sección 978</name>
      <description>Sección electoral 978 - BRIGADA 1 DT11</description>
      <ExtendedData>
        <Data name="seccion">
          <value>978</value>
        </Data>
        <Data name="distrito">
          <value>11</value>
        </Data>
      </ExtendedData>
      <Style>
        <PolyStyle>
          <color>804aa316</color>
        </PolyStyle>
        <LineStyle>
          <color>ff4aa316</color>
          <width>2</width>
        </LineStyle>
      </Style>
      <Polygon>
        <outerBoundaryIs>
          <LinearRing>
            <coordinates>
              -101.191000,19.703000,0 -101.185300,19.702750,0 -101.184700,19.707750,0 -101.190400,19.708000,0 -101.191000,19.703000,0
            </coordinates>
          </LinearRing>
        </outerBoundaryIs>
      </Polygon>
    </Placemark>
  

    <Placemark>
      <name>Sección 969</name>
      <description>Sección electoral 969 - BRIGADA 1 DT11</description>
      <ExtendedData>
        <Data name="seccion">
          <value>969</value>
        </Data>
        <Data name="distrito">
          <value>11</value>
        </Data>
      </ExtendedData>
      <Style>
        <PolyStyle>
          <color>804aa316</color>
        </PolyStyle>
        <LineStyle>
          <color>ff4aa316</color>
          <width>2</width>
        </LineStyle>
      </Style>
      <Polygon>
        <outerBoundaryIs>
          <LinearRing>
            <coordinates>
              -101.199000,19.700500,0 -101.193300,19.700250,0 -101.192700,19.705250,0 -101.198400,19.705500,0 -101.199000,19.700500,0
            </coordinates>
          </LinearRing>
        </outerBoundaryIs>
      </Polygon>
    </Placemark>
  

    <Placemark>
      <name>Sección 971</name>
      <description>Sección electoral 971 - BRIGADA 1 DT11</description>
      <ExtendedData>
        <Data name="seccion">
          <value>971</value>
        </Data>
        <Data name="distrito">
          <value>11</value>
        </Data>
      </ExtendedData>
      <Style>
        <PolyStyle>
          <color>804aa316</color>
        </PolyStyle>
        <LineStyle>
          <color>ff4aa316</color>
          <width>2</width>
        </LineStyle>
      </Style>
      <Polygon>
        <outerBoundaryIs>
          <LinearRing>
            <coordinates>
              -101.194500,19.699000,0 -101.189750,19.698800,0 -101.189250,19.702800,0 -101.194000,19.703000,0 -101.194500,19.699000,0
            </coordinates>
          </LinearRing>
        </outerBoundaryIs>
      </Polygon>
    </Placemark>
  

    <Placemark>
      <name>Sección 987</name>
      <description>Sección electoral 987 - BRIGADA 1 DT11</description>
      <ExtendedData>
        <Data name="seccion">
          <value>987</value>
        </Data>
        <Data name="distrito">
          <value>11</value>
        </Data>
      </ExtendedData>
      <Style>
        <PolyStyle>
          <color>804aa316</color>
        </PolyStyle>
        <LineStyle>
          <color>ff4aa316</color>
          <width>2</width>
        </LineStyle>
      </Style>
      <Polygon>
        <outerBoundaryIs>
          <LinearRing>
            <coordinates>
              -101.190000,19.696500,0 -101.184300,19.696250,0 -101.183700,19.701250,0 -101.189400,19.701500,0 -101.190000,19.696500,0
            </coordinates>
          </LinearRing>
        </outerBoundaryIs>
      </Polygon>
    </Placemark>
  

    <Placemark>
      <name>Sección 994</name>
      <description>Sección electoral 994 - BRIGADA 1 DT11</description>
      <ExtendedData>
        <Data name="seccion">
          <value>994</value>
        </Data>
        <Data name="distrito">
          <value>11</value>
        </Data>
      </ExtendedData>
      <Style>
        <PolyStyle>
          <color>804aa316</color>
        </PolyStyle>
        <LineStyle>
          <color>ff4aa316</color>
          <width>2</width>
        </LineStyle>
      </Style>
      <Polygon>
        <outerBoundaryIs>
          <LinearRing>
            <coordinates>
              -101.201500,19.693500,0 -101.194850,19.693250,0 -101.194150,19.698250,0 -101.200800,19.698500,0 -101.201500,19.693500,0
            </coordinates>
          </LinearRing>
        </outerBoundaryIs>
      </Polygon>
    </Placemark>
  

    <Placemark>
      <name>Sección 991</name>
      <description>Sección electoral 991 - BRIGADA 1 DT11</description>
      <ExtendedData>
        <Data name="seccion">
          <value>991</value>
        </Data>
        <Data name="distrito">
          <value>11</value>
        </Data>
      </ExtendedData>
      <Style>
        <PolyStyle>
          <color>804aa316</color>
        </PolyStyle>
        <LineStyle>
          <color>ff4aa316</color>
          <width>2</width>
        </LineStyle>
      </Style>
      <Polygon>
        <outerBoundaryIs>
          <LinearRing>
            <coordinates>
              -101.195500,19.696000,0 -101.190750,19.695800,0 -101.190250,19.699800,0 -101.195000,19.700000,0 -101.195500,19.696000,0
            </coordinates>
          </LinearRing>
        </outerBoundaryIs>
      </Polygon>
    </Placemark>
  

    <Placemark>
      <name>Sección 992</name>
      <description>Sección electoral 992 - BRIGADA 1 DT11</description>
      <ExtendedData>
        <Data name="seccion">
          <value>992</value>
        </Data>
        <Data name="distrito">
          <value>11</value>
        </Data>
      </ExtendedData>
      <Style>
        <PolyStyle>
          <color>804aa316</color>
        </PolyStyle>
        <LineStyle>
          <color>ff4aa316</color>
          <width>2</width>
        </LineStyle>
      </Style>
      <Polygon>
        <outerBoundaryIs>
          <LinearRing>
            <coordinates>
              -101.193500,19.695000,0 -101.188750,19.694800,0 -101.188250,19.698800,0 -101.193000,19.699000,0 -101.193500,19.695000,0
            </coordinates>
          </LinearRing>
        </outerBoundaryIs>
      </Polygon>
    </Placemark>
  

    <Placemark>
      <name>Sección 993</name>
      <description>Sección electoral 993 - BRIGADA 1 DT11</description>
      <ExtendedData>
        <Data name="seccion">
          <value>993</value>
        </Data>
        <Data name="distrito">
          <value>11</value>
        </Data>
      </ExtendedData>
      <Style>
        <PolyStyle>
          <color>804aa316</color>
        </PolyStyle>
        <LineStyle>
          <color>ff4aa316</color>
          <width>2</width>
        </LineStyle>
      </Style>
      <Polygon>
        <outerBoundaryIs>
          <LinearRing>
            <coordinates>
              -101.191500,19.694000,0 -101.186750,19.693800,0 -101.186250,19.697800,0 -101.191000,19.698000,0 -101.191500,19.694000,0
            </coordinates>
          </LinearRing>
        </outerBoundaryIs>
      </Polygon>
    </Placemark>
  

    <Placemark>
      <name>Sección 1001</name>
      <description>Sección electoral 1001 - BRIGADA 1 DT11</description>
      <ExtendedData>
        <Data name="seccion">
          <value>1001</value>
        </Data>
        <Data name="distrito">
          <value>11</value>
        </Data>
      </ExtendedData>
      <Style>
        <PolyStyle>
          <color>804aa316</color>
        </PolyStyle>
        <LineStyle>
          <color>ff4aa316</color>
          <width>2</width>
        </LineStyle>
      </Style>
      <Polygon>
        <outerBoundaryIs>
          <LinearRing>
            <coordinates>
              -101.198000,19.691500,0 -101.192300,19.691250,0 -101.191700,19.696250,0 -101.197400,19.696500,0 -101.198000,19.691500,0
            </coordinates>
          </LinearRing>
        </outerBoundaryIs>
      </Polygon>
    </Placemark>
  

    <Placemark>
      <name>Sección 1002</name>
      <description>Sección electoral 1002 - BRIGADA 1 DT11</description>
      <ExtendedData>
        <Data name="seccion">
          <value>1002</value>
        </Data>
        <Data name="distrito">
          <value>11</value>
        </Data>
      </ExtendedData>
      <Style>
        <PolyStyle>
          <color>804aa316</color>
        </PolyStyle>
        <LineStyle>
          <color>ff4aa316</color>
          <width>2</width>
        </LineStyle>
      </Style>
      <Polygon>
        <outerBoundaryIs>
          <LinearRing>
            <coordinates>
              -101.195500,19.691000,0 -101.190750,19.690800,0 -101.190250,19.694800,0 -101.195000,19.695000,0 -101.195500,19.691000,0
            </coordinates>
          </LinearRing>
        </outerBoundaryIs>
      </Polygon>
    </Placemark>
  

    <Placemark>
      <name>Sección 1003</name>
      <description>Sección electoral 1003 - BRIGADA 1 DT11</description>
      <ExtendedData>
        <Data name="seccion">
          <value>1003</value>
        </Data>
        <Data name="distrito">
          <value>11</value>
        </Data>
      </ExtendedData>
      <Style>
        <PolyStyle>
          <color>804aa316</color>
        </PolyStyle>
        <LineStyle>
          <color>ff4aa316</color>
          <width>2</width>
        </LineStyle>
      </Style>
      <Polygon>
        <outerBoundaryIs>
          <LinearRing>
            <coordinates>
              -101.193500,19.690000,0 -101.188750,19.689800,0 -101.188250,19.693800,0 -101.193000,19.694000,0 -101.193500,19.690000,0
            </coordinates>
          </LinearRing>
        </outerBoundaryIs>
      </Polygon>
    </Placemark>
  

    <Placemark>
      <name>Sección 1004</name>
      <description>Sección electoral 1004 - BRIGADA 1 DT11</description>
      <ExtendedData>
        <Data name="seccion">
          <value>1004</value>
        </Data>
        <Data name="distrito">
          <value>11</value>
        </Data>
      </ExtendedData>
      <Style>
        <PolyStyle>
          <color>804aa316</color>
        </PolyStyle>
        <LineStyle>
          <color>ff4aa316</color>
          <width>2</width>
        </LineStyle>
      </Style>
      <Polygon>
        <outerBoundaryIs>
          <LinearRing>
            <coordinates>
              -101.191500,19.689000,0 -101.186750,19.688800,0 -101.186250,19.692800,0 -101.191000,19.693000,0 -101.191500,19.689000,0
            </coordinates>
          </LinearRing>
        </outerBoundaryIs>
      </Polygon>
    </Placemark>
  
  </Document>
</kml>